INTELSAT 11 (IS-11) [PM]
1 32253C 07044B   23171.28175926 -.00000178  00000-0  00000-0 0  1713
2 32253   0.7295  92.3011 0002895   6.0061 228.3561  1.00272916    19
INTELSAT 11 (IS-11)     
1 32253C 07044B   23173.00000000 -.00000178  00000-0  00000-0 0  1737
2 32253   0.7320  92.3554 0002975   6.3052 128.2700  1.00272328    12
INTELSAT 11 (IS-11)     
1 32253C 07044B   23177.00000000 -.00000178  00000-0  00000-0 0  1775
2 32253   0.7379  92.2020 0003406   9.7079 128.9641  1.00270532    15
INTELSAT 11 (IS-11) [PM]
1 32253C 07044B   23178.83629630 -.00000178  00000-0  00000-0 0  1784
2 32253   0.7428  91.9806 0003477  10.3034  71.4577  1.00272634    10
HORIZONS-2              
1 32388C 07063B   23173.00000000 -.00000159  00000-0  00000-0 0  1736
2 32388   0.0101  54.4700 0002278  49.8691  91.7699  1.00273478    18
HORIZONS-2          [PM]
1 32388C 07063B   23173.68166667 -.00000163  00000-0  00000-0 0  1737
2 32388   0.0121  61.0441 0002263  45.0298 336.1129  1.00272721    15
HORIZONS-2              
1 32388C 07063B   23177.00000000 -.00000163  00000-0  00000-0 0  1779
2 32388   0.0187  71.6494 0002674  35.6020  92.8200  1.00271739    10
HORIZONS-2          [PM]
1 32388C 07063B   23178.71699074 -.00000163  00000-0  00000-0 0  1784
2 32388   0.0128 319.2126 0002886 152.1464 348.5214  1.00270322    13
GALAXY 18 (G-18)        
1 32951C 08024A   23173.00000000  .00000115  00000-0  00000-0 0  1731
2 32951   0.0124  66.2904 0002877  31.8797  48.7513  1.00271159    10
GALAXY 18 (G-18)    [PM]
1 32951C 08024A   23176.84444444  .00000115  00000-0  00000-0 0  1763
2 32951   0.0205 291.0314 0003287 173.1558 350.5310  1.00271602    16
GALAXY 18 (G-18)        
1 32951C 08024A   23177.00000000  .00000113  00000-0  00000-0 0  1777
2 32951   0.0196 292.9947 0003303 170.4644  47.4128  1.00271672    18
INTELSAT 25 (IS-25)     
1 33153C 08034A   23173.00000000 -.00000160  00000-0  00000-0 0  1738
2 33153   0.0025  28.2473 0002661  64.8655 145.3165  1.00271273    18
INTELSAT 25 (IS-25) [PM]
1 33153C 08034A   23175.87500000 -.00003752  00000-0  00000-0 0  1752
2 33153   0.0328 243.6312 0003000 164.6469 147.9817  1.00272508    13
INTELSAT 25 (IS-25)     
1 33153C 08034A   23177.00000000 -.00000132  00000-0  00000-0 0  1775
2 33153   0.0033 350.6983 0003083 105.1420 146.5324  1.00272249    17
GALAXY 19 (G-19)        
1 33376C 08045A   23173.00000000 -.00000043  00000-0  00000-0 0  1737
2 33376   0.0001  27.6389 0002687  66.6303  78.6538  1.00272016    14
GALAXY 19 (G-19)    [PM]
1 33376C 08045A   23176.77143519 -.00000049  00000-0  00000-0 0  1766
2 33376   0.0078 317.7098 0003042 142.6547 353.9961  1.00270647    16
GALAXY 19 (G-19)        
1 33376C 08045A   23177.00000000 -.00003339  00000-0  00000-0 0  1776
2 33376   0.0067 322.5567 0003093 137.0695  77.2426  1.00270816    17
INTELSAT 14 (IS-14)     
1 36097C 09064A   23173.00000000 -.00000193  00000-0  00000-0 0  1738
2 36097   0.0074 327.9937 0002207 124.2400 132.6861  1.00273300    16
INTELSAT 14 (IS-14)     
1 36097C 09064A   23177.00000000 -.00000181  00000-0  00000-0 0  1773
2 36097   0.0028 349.2059 0002623 108.0777 131.5941  1.00271450    17
INTELSAT 14 (IS-14) [PM]
1 36097C 09064A   23179.86121528 -.00000013  00000-0  00000-0 0  1794
2 36097   0.0069  22.3400 0002786  77.7639  81.6241  1.00273026    19
INTELSAT 15 (IS-15)     
1 36106C 09067A   23173.00000000 -.00000095  00000-0  00000-0 0  1733
2 36106   0.0136  30.5009 0002017  57.2483 267.3173  1.00272320    11
INTELSAT 15 (IS-15)     
1 36106C 09067A   23177.00000000 -.00000135  00000-0  00000-0 0  1776
2 36106   0.0191  43.9525 0002365  49.5161 265.5538  1.00271465    10
INTELSAT 15 (IS-15) [PM]
1 36106C 09067A   23177.28383102 -.00000095  00000-0  00000-0 0  1778
2 36106   0.0236 318.9085 0002305 133.1799   9.3924  1.00271927    13
INTELSAT 16 (IS-16)     
1 36397C 10006A   23173.00000000 -.00000155  00000-0  00000-0 0  1737
2 36397   0.0130  36.0695 0001648  62.6899  94.9610  1.00272366    19
INTELSAT 16 (IS-16) [PM]
1 36397C 10006A   23176.73645833 -.00000155  00000-0  00000-0 0  1762
2 36397   0.0210 317.4286 0001999 149.1287 355.9769  1.00270540    18
INTELSAT 16 (IS-16)     
1 36397C 10006A   23177.00000000 -.00000155  00000-0  00000-0 0  1775
2 36397   0.0202 319.3785 0002072 146.0759  92.2138  1.00270710    17
INTELSAT 17 (IS-17)     
1 37238C 10065B   23173.00000000  .00000051  00000-0  00000-0 0  1731
2 37238   0.0166 257.4385 0002294 189.2853 249.1903  1.00271817    11
INTELSAT 17 (IS-17) [PM]
1 37238C 10065B   23176.31983796  .00000088  00000-0  00000-0 0  1763
2 37238   0.0381 199.0797 0002527 252.9293   2.3310  1.00271818    15
INTELSAT 17 (IS-17)     
1 37238C 10065B   23177.00000000  .00000086  00000-0  00000-0 0  1777
2 37238   0.0377 191.9254 0002653 262.4130 245.5327  1.00272215    16
INTELSAT 17 (IS-17) [PM]
1 37238C 10065B   23177.52275463  .00000080  00000-0  00000-0 0  1775
2 37238   0.0373 198.6801 0002688 254.4914  75.4068  1.00271974    16
INTELSAT NEW DAWN   [PM]
1 37392C 11016A   23171.55678241  .00000230  00000-0  00000-0 0  1712
2 37392   0.0215 273.7449 0000644 134.1159  93.8494  1.00271854    14
INTELSAT NEW DAWN       
1 37392C 11016A   23173.00000000  .00000243  00000-0  00000-0 0  1732
2 37392   0.0246 257.0759 0000669 161.2039 244.4160  1.00272578    10
INTELSAT NEW DAWN       
1 37392C 11016A   23177.00000000 -.00003880  00000-0  00000-0 0  1771
2 37392   0.0067 290.7289 0000927 153.5688 222.3730  1.00274426    16
INTELSAT NEW DAWN   [PM]
1 37392C 11016A   23178.82597222 -.00003193  00000-0  00000-0 0  1787
2 37392   0.0000 313.8621 0000660 136.4595 155.5230  1.00270488    17
INTELSAT 18 (IS-18)     
1 37834C 11056A   23173.00000000  .00000180  00000-0  00000-0 0  1737
2 37834   0.0044  31.8142 0001566  53.3105   4.7902  1.00270936    10
INTELSAT 18 (IS-18)     
1 37834C 11056A   23177.00000000  .00000143  00000-0  00000-0 0  1774
2 37834   0.0114  51.7569 0001949  40.5125   1.5939  1.00271766    14
INTELSAT 18 (IS-18) [PM]
1 37834C 11056A   23177.00971065  .00000142  00000-0  00000-0 0  1771
2 37834   0.0078 330.8314 0001965 121.4195   5.1179  1.00271460    13
INTELSAT 22 (IS-22)     
1 38098C 12011A   23173.00000000 -.00002848  00000-0  00000-0 0  1736
2 38098   0.0012  41.8291 0002296  55.8674 244.3070  1.00270264    15
INTELSAT 22 (IS-22)     
1 38098C 12011A   23177.00000000 -.00003422  00000-0  00000-0 0  1773
2 38098   0.0119  70.2285 0002757  27.9553 247.7773  1.00272502    14
INTELSAT 22 (IS-22) [PM]
1 38098C 12011A   23181.78796296  .00000007  00000-0  00000-0 0  1812
2 38098   0.0023 350.7599 0002832 117.6022 166.0012  1.00269792    10
INTELSAT 19 (IS-19)     
1 38356C 12030A   23173.00000000  .00000059  00000-0  00000-0 0  1735
2 38356   0.0030  28.7151 0002681  60.8132 346.3984  1.00270906    14
INTELSAT 19 (IS-19) [PM]
1 38356C 12030A   23176.04305556  .00000034  00000-0  00000-0 0  1762
2 38356   0.0129 313.1928 0002929 140.4149   0.8203  1.00270988    10
INTELSAT 19 (IS-19)     
1 38356C 12030A   23177.00000000  .00000034  00000-0  00000-0 0  1776
2 38356   0.0108 320.1385 0003041 135.1591 344.5740  1.00271128    11
INTELSAT 19 (IS-19) [PM]
1 38356C 12030A   23178.81458333 -.00000009  00000-0  00000-0 0  1786
2 38356   0.0075 341.7203 0003203 115.7528 277.4414  1.00271092    18
INTELSAT 20 (IS-20) [PM]
1 38740C 12043A   23172.48519676 -.00003516  00000-0  00000-0 0  1722
2 38740   0.0009 266.6824 0001331 112.0958 133.7998  1.00270516    14
INTELSAT 20 (IS-20)     
1 38740C 12043A   23172.94605324  .00000064  00000-0  00000-0 0  1723
2 38740   0.0276 122.0466 0001409  75.1429 121.7496  1.00270350    11
INTELSAT 20 (IS-20)     
1 38740C 12043A   23176.94430556 -.00003758  00000-0  00000-0 0  1768
2 38740   0.0130 107.6514 0001177  74.3232 140.2891  1.00270830    16
INTELSAT 21 (IS-21) [PM]
1 38749C 12045A   23172.93518519 -.00000190  00000-0  00000-0 0  1723
2 38749   0.0054 345.1254 0001862 101.1388 102.2406  1.00273972    12
INTELSAT 21 (IS-21)     
1 38749C 12045A   23173.00000000 -.00000191  00000-0  00000-0 0  1735
2 38749   0.0053 345.3892 0001869 101.1677 125.3454  1.00274027    10
INTELSAT 21 (IS-21)     
1 38749C 12045A   23177.00000000 -.00000220  00000-0  00000-0 0  1776
2 38749   0.0042   7.2086 0002257  84.9785 123.6834  1.00272081    18
INTELSAT 23 (IS-23)     
1 38867C 12057A   23173.00000000 -.00000188  00000-0  00000-0 0  1735
2 38867   0.0269 222.6551 0000806 183.8162 170.4293  1.00273961    13
INTELSAT 23 (IS-23) [PM]
1 38867C 12057A   23174.54510417 -.00000194  00000-0  00000-0 0  1741
2 38867   0.0430 183.6094 0000795  44.8422 186.2281  1.00273071    17
INTELSAT 23 (IS-23)     
1 38867C 12057A   23177.00000000 -.00000197  00000-0  00000-0 0  1773
2 38867   0.0349 208.1775 0000652 218.2754 154.4297  1.00274485    16
INTELSAT 23 (IS-23) [PM]
1 38867C 12057A   23178.66429398 -.00000198  00000-0  00000-0 0  1783
2 38867   0.0421 179.9316 0001528 123.7818 157.9422  1.00265536    12
INTELSAT 30 (IS-30) [PM]
1 40271C 14062A   23172.37262732 -.00000090  00000-0  00000-0 0  1727
2 40271   0.0156 130.4303 0000456  79.3692  98.6010  1.00266855    11
INTELSAT 30 (IS-30)     
1 40271C 14062A   23172.94605324 -.00000083  00000-0  00000-0 0  1720
2 40271   0.0016  34.8483 0001285  40.0833  80.4578  1.00271234    10
INTELSAT 30 (IS-30)     
1 40271C 14062A   23176.94430556 -.00000049  00000-0  00000-0 0  1763
2 40271   0.0005 354.0756 0001720  76.9933  87.6492  1.00270476    12
INTELSAT 34 (IS-34)     
1 40874C 15039A   23172.94605324 -.00000191  00000-0  00000-0 0  1724
2 40874   0.0090 337.8110 0000875   3.2623 213.8813  1.00269510    14
INTELSAT 34 (IS-34) [PM]
1 40874C 15039A   23173.39534722 -.00003324  00000-0  00000-0 0  1739
2 40874   0.0494 166.9957 0000882 324.8806 225.2621  1.00273597    19
